ONEWEB-0012             
1 44057U 19010A   23349.70522716  .00000115  00000+0  26686-3 0  9999
2 44057  87.9079  50.8113 0001330 131.9385 228.1860 13.16594540231233
ONEWEB-0010             
1 44058U 19010B   23349.73056498  .00000032  00000+0  49235-4 0  9996
2 44058  87.9074  50.7863 0002151 120.6384 239.4959 13.16594096231281
ONEWEB-0008             
1 44059U 19010C   23349.67990107 -.00000018  00000+0 -80993-4 0  9996
2 44059  87.9079  50.7955 0001777  92.4988 267.6346 13.16594226231398
ONEWEB-0007             
1 44060U 19010D   23349.82571803 -.00000033  00000+0 -12195-3 0  9998
2 44060  87.9012  81.2148 0001459 118.7968 241.3309 13.15550272231151
ONEWEB-0006             
1 44061U 19010E   23349.81145705  .00000014  00000+0  21522-5 0  9999
2 44061  87.9005  81.2101 0001792 119.8445 240.2863 13.15549426231203
ONEWEB-0011             
1 44062U 19010F   23349.79958935  .00000138  00000+0  33308-3 0  9994
2 44062  87.9006  81.2169 0002003 111.0910 249.0434 13.15550948231196
ONEWEB-0013             
1 45131U 20008A   23349.72972243 -.00000507  00000+0 -15095-2 0  9996
2 45131  87.8579 236.6389 0000800  42.1642 317.9546 13.09363037186391
ONEWEB-0017             
1 45132U 20008B   23350.15364550  .00000326  00000+0  89672-3 0  9992
2 45132  87.8916 217.8118 0001615  83.3519 276.7792 13.10377004189011
